{"type": "FeatureCollection", "features": [ {"type": "Feature", "properties": {"norad_id": 67040, "name": "STARLINK-35786", "group": "last-30-days", "lat": -8.457258732394337, "lon": 119.96102865110879, "alt_km": 315.10711456244826, "timestamp": "2025-12-21T09:37:21.375262+00:00", "meta": {"OBJECT_NAME": "STARLINK-35786", "OBJECT_ID": "2025-294L", "EPOCH": "2025-12-21T04:00:01.998720", "MEAN_MOTION": 15.85748408, "ECCENTRICITY": 0.0002341, "INCLINATION": 43.0003, "RA_OF_ASC_NODE": 130.5867, "ARG_OF_PERICENTER": 268.4566, "MEAN_ANOMALY": 180.2826, "EPHEMERIS_TYPE": 0, "CLASSIFICATION_TYPE": "U", "NORAD_CAT_ID": 67040, "ELEMENT_SET_NO": 999, "REV_AT_EPOCH": 147, "BSTAR": -0.0012608, "MEAN_MOTION_DOT": -0.00307061, "MEAN_MOTION_DDOT": 0}, "tle": {"line1": "1 67040U 25294L   25355.16668980 -.00307061  00000+0 -12608-2 0  9990", "line2": "2 67040  43.0003 130.5867 0002341 268.4566 180.2826 15.85748408  1475"}}, "geometry": {"type": "Point", "coordinates": [119.96102865110879, -8.457258732394337]}}, {"type": "Feature", "properties": {"norad_id": 67041, "name": "STARLINK-35765", "group": "last-30-days", "lat": -5.6962787103825905, "lon": 122.98709608607153, "alt_km": 315.4776170769783, "timestamp": "2025-12-21T09:37:21.375273+00:00", "meta": {"OBJECT_NAME": "STARLINK-35765", "OBJECT_ID": "2025-294M", "EPOCH": "2025-12-21T04:00:01.998720", "MEAN_MOTION": 15.86135284, "ECCENTRICITY": 0.0001624, "INCLINATION": 43.0001, "RA_OF_ASC_NODE": 130.5763, "ARG_OF_PERICENTER": 275.6222, "MEAN_ANOMALY": 177.1366, "EPHEMERIS_TYPE": 0, "CLASSIFICATION_TYPE": "U", "NORAD_CAT_ID": 67041, "ELEMENT_SET_NO": 999, "REV_AT_EPOCH": 147, "BSTAR": -0.0063132, "MEAN_MOTION_DOT": -0.01411352, "MEAN_MOTION_DDOT": 0}, "tle": {"line1": "1 67041U 25294M   25355.16668980 -.01411352  00000+0 -63132-2 0  9999", "line2": "2 67041  43.0001 130.5763 0001624 275.6222 177.1366 15.86135284  1478"}}, "geometry": {"type": "Point", "coordinates": [122.98709608607153, -5.6962787103825905]}}, {"type": "Feature", "properties": {"norad_id": 67042, "name": "STARLINK-35773", "group": "last-30-days", "lat": -4.189535166924284, "lon": 124.61786548749755, "alt_km": 315.28564142349205, "timestamp": "2025-12-21T09:37:21.375283+00:00", "meta": {"OBJECT_NAME": "STARLINK-35773", "OBJECT_ID": "2025-294N", "EPOCH": "2025-12-21T04:00:01.998720", "MEAN_MOTION": 15.8616054, "ECCENTRICITY": 0.0001657, "INCLINATION": 43.0003, "RA_OF_ASC_NODE": 130.5708, "ARG_OF_PERICENTER": 275.1774, "MEAN_ANOMALY": 179.781, "EPHEMERIS_TYPE": 0, "CLASSIFICATION_TYPE": "U", "NORAD_CAT_ID": 67042, "ELEMENT_SET_NO": 999, "REV_AT_EPOCH": 166, "BSTAR": -0.0063363, "MEAN_MOTION_DOT": -0.01417404, "MEAN_MOTION_DDOT": 0}, "tle": {"line1": "1 67042U 25294N   25355.16668980 -.01417404  00000+0 -63363-2 0  9990", "line2": "2 67042  43.0003 130.5708 0001657 275.1774 179.7810 15.86160540  1669"}}, "geometry": {"type": "Point", "coordinates": [124.61786548749755, -4.189535166924284]}}, {"type": "Feature", "properties": {"norad_id": 67043, "name": "STARLINK-35901", "group": "last-30-days", "lat": -2.6768313718221513, "lon": 126.24509401052758, "alt_km": 314.60828673308333, "timestamp": "2025-12-21T09:37:21.375295+00:00", "meta": {"OBJECT_NAME": "STARLINK-35901", "OBJECT_ID": "2025-294P", "EPOCH": "2025-12-21T04:00:01.998720", "MEAN_MOTION": 15.85852406, "ECCENTRICITY": 0.0001566, "INCLINATION": 43.0002, "RA_OF_ASC_NODE": 130.5653, "ARG_OF_PERICENTER": 257.4842, "MEAN_ANOMALY": 199.7069, "EPHEMERIS_TYPE": 0, "CLASSIFICATION_TYPE": "U", "NORAD_CAT_ID": 67043, "ELEMENT_SET_NO": 999, "REV_AT_EPOCH": 166, "BSTAR": -0.0012594, "MEAN_MOTION_DOT": -0.00308153, "MEAN_MOTION_DDOT": 0}, "tle": {"line1": "1 67043U 25294P   25355.16668980 -.00308153  00000+0 -12594-2 0  9990", "line2": "2 67043  43.0002 130.5653 0001566 257.4842 199.7069 15.85852406  1662"}}, "geometry": {"type": "Point", "coordinates": [126.24509401052758, -2.6768313718221513]}}, {"type": "Feature", "properties": {"norad_id": 67044, "name": "STARLINK-35884", "group": "last-30-days", "lat": -1.217308535855088, "lon": 127.80886178235575, "alt_km": 314.21463900767685, "timestamp": "2025-12-21T09:37:21.375305+00:00", "meta": {"OBJECT_NAME": "STARLINK-35884", "OBJECT_ID": "2025-294Q", "EPOCH": "2025-12-21T04:00:01.998720", "MEAN_MOTION": 15.85870567, "ECCENTRICITY": 0.0002351, "INCLINATION": 43.0006, "RA_OF_ASC_NODE": 130.5598, "ARG_OF_PERICENTER": 267.3824, "MEAN_ANOMALY": 191.9261, "EPHEMERIS_TYPE": 0, "CLASSIFICATION_TYPE": "U", "NORAD_CAT_ID": 67044, "ELEMENT_SET_NO": 999, "REV_AT_EPOCH": 166, "BSTAR": -0.0012493, "MEAN_MOTION_DOT": -0.00306105, "MEAN_MOTION_DDOT": 0}, "tle": {"line1": "1 67044U 25294Q   25355.16668980 -.00306105  00000+0 -12493-2 0  9994", "line2": "2 67044  43.0006 130.5598 0002351 267.3824 191.9261 15.85870567  1664"}}, "geometry": {"type": "Point", "coordinates": [127.80886178235575, -1.217308535855088]}}, {"type": "Feature", "properties": {"norad_id": 67045, "name": "STARLINK-35891", "group": "last-30-days", "lat": 0.49694883169474513, "lon": 129.64242205614283, "alt_km": 314.67417482536166, "timestamp": "2025-12-21T09:37:21.375315+00:00", "meta": {"OBJECT_NAME": "STARLINK-35891", "OBJECT_ID": "2025-294R", "EPOCH": "2025-12-21T04:00:01.998720", "MEAN_MOTION": 15.86233652, "ECCENTRICITY": 0.0001647, "INCLINATION": 43.0003, "RA_OF_ASC_NODE": 130.5535, "ARG_OF_PERICENTER": 275.2417, "MEAN_ANOMALY": 186.5413, "EPHEMERIS_TYPE": 0, "CLASSIFICATION_TYPE": "U", "NORAD_CAT_ID": 67045, "ELEMENT_SET_NO": 999, "REV_AT_EPOCH": 158, "BSTAR": -0.0064418, "MEAN_MOTION_DOT": -0.01471743, "MEAN_MOTION_DDOT": 0}, "tle": {"line1": "1 67045U 25294R   25355.16668980 -.01471743  00000+0 -64418-2 0  9991", "line2": "2 67045  43.0003 130.5535 0001647 275.2417 186.5413 15.86233652  1585"}}, "geometry": {"type": "Point", "coordinates": [129.64242205614283, 0.49694883169474513]}}, {"type": "Feature", "properties": {"norad_id": 67046, "name": "STARLINK-35721", "group": "last-30-days", "lat": 2.0682178698806943, "lon": 131.32436687052595, "alt_km": 314.4554618751981, "timestamp": "2025-12-21T09:37:21.375328+00:00", "meta": {"OBJECT_NAME": "STARLINK-35721", "OBJECT_ID": "2025-294S", "EPOCH": "2025-12-21T04:00:01.998720", "MEAN_MOTION": 15.86261423, "ECCENTRICITY": 0.0001615, "INCLINATION": 43.0005, "RA_OF_ASC_NODE": 130.5478, "ARG_OF_PERICENTER": 275.6486, "MEAN_ANOMALY": 188.4203, "EPHEMERIS_TYPE": 0, "CLASSIFICATION_TYPE": "U", "NORAD_CAT_ID": 67046, "ELEMENT_SET_NO": 999, "REV_AT_EPOCH": 166, "BSTAR": -0.006512, "MEAN_MOTION_DOT": -0.01487737, "MEAN_MOTION_DDOT": 0}, "tle": {"line1": "1 67046U 25294S   25355.16668980 -.01487737  00000+0 -65120-2 0  9993", "line2": "2 67046  43.0005 130.5478 0001615 275.6486 188.4203 15.86261423  1663"}}, "geometry": {"type": "Point", "coordinates": [131.32436687052595, 2.0682178698806943]}}, {"type": "Feature", "properties": {"norad_id": 67047, "name": "STARLINK-35779", "group": "last-30-days", "lat": 3.804708525650778, "lon": 133.18971952413827, "alt_km": 314.26895279875225, "timestamp": "2025-12-21T09:37:21.375338+00:00", "meta": {"OBJECT_NAME": "STARLINK-35779", "OBJECT_ID": "2025-294T", "EPOCH": "2025-12-21T04:00:01.998720", "MEAN_MOTION": 15.86291251, "ECCENTRICITY": 0.0001645, "INCLINATION": 43.0003, "RA_OF_ASC_NODE": 130.5417, "ARG_OF_PERICENTER": 274.7351, "MEAN_ANOMALY": 191.8674, "EPHEMERIS_TYPE": 0, "CLASSIFICATION_TYPE": "U", "NORAD_CAT_ID": 67047, "ELEMENT_SET_NO": 999, "REV_AT_EPOCH": 147, "BSTAR": -0.0066783, "MEAN_MOTION_DOT": -0.01523242, "MEAN_MOTION_DDOT": 0}, "tle": {"line1": "1 67047U 25294T   25355.16668980 -.01523242  00000+0 -66783-2 0  9992", "line2": "2 67047  43.0003 130.5417 0001645 274.7351 191.8674 15.86291251  1470"}}, "geometry": {"type": "Point", "coordinates": [133.18971952413827, 3.804708525650778]}}, {"type": "Feature", "properties": {"norad_id": 67048, "name": "STARLINK-35905", "group": "last-30-days", "lat": 5.128405154893711, "lon": 134.61905792115132, "alt_km": 314.0297254797415, "timestamp": "2025-12-21T09:37:21.375348+00:00", "meta": {"OBJECT_NAME": "STARLINK-35905", "OBJECT_ID": "2025-294U", "EPOCH": "2025-12-21T04:00:01.998720", "MEAN_MOTION": 15.86330943, "ECCENTRICITY": 0.0001576, "INCLINATION": 43.0005, "RA_OF_ASC_NODE": 130.5368, "ARG_OF_PERICENTER": 275.6345, "MEAN_ANOMALY": 192.8883, "EPHEMERIS_TYPE": 0, "CLASSIFICATION_TYPE": "U", "NORAD_CAT_ID": 67048, "ELEMENT_SET_NO": 999, "REV_AT_EPOCH": 158, "BSTAR": -0.0067679, "MEAN_MOTION_DOT": -0.01543827, "MEAN_MOTION_DDOT": 0}, "tle": {"line1": "1 67048U 25294U   25355.16668980 -.01543827  00000+0 -67679-2 0  9999", "line2": "2 67048  43.0005 130.5368 0001576 275.6345 192.8883 15.86330943  1581"}}, "geometry": {"type": "Point", "coordinates": [134.61905792115132, 5.128405154893711]}}, {"type": "Feature", "properties": {"norad_id": 67049, "name": "STARLINK-35877", "group": "last-30-days", "lat": 6.782589913725166, "lon": 136.41892528929992, "alt_km": 313.85218111953054, "timestamp": "2025-12-21T09:37:21.375358+00:00", "meta": {"OBJECT_NAME": "STARLINK-35877", "OBJECT_ID": "2025-294V", "EPOCH": "2025-12-21T04:00:01.998720", "MEAN_MOTION": 15.86363513, "ECCENTRICITY": 0.0001565, "INCLINATION": 43.0007, "RA_OF_ASC_NODE": 130.5307, "ARG_OF_PERICENTER": 274.6135, "MEAN_ANOMALY": 196.3338, "EPHEMERIS_TYPE": 0, "CLASSIFICATION_TYPE": "U", "NORAD_CAT_ID": 67049, "ELEMENT_SET_NO": 999, "REV_AT_EPOCH": 166, "BSTAR": -0.0069765, "MEAN_MOTION_DOT": -0.01587757, "MEAN_MOTION_DDOT": 0}, "tle": {"line1": "1 67049U 25294V   25355.16668980 -.01587757  00000+0 -69765-2 0  9998", "line2": "2 67049  43.0007 130.5307 0001565 274.6135 196.3338 15.86363513  1663"}}, "geometry": {"type": "Point", "coordinates": [136.41892528929992, 6.782589913725166]}}]}